ONEWEB-0328             
1 49197U 21083M   24286.82975615  .00000113  00000+0  27462-3 0  9997
2 49197  87.8862  82.0446 0001640  89.9871 270.1446 13.13470108150512
ONEWEB-0331             
1 49198U 21083N   24286.74921235  .00000110  00000+0  24606-3 0  9992
2 49198  87.9050  97.3448 0001441  85.0405 275.0892 13.18687247149294
ONEWEB-0333             
1 49199U 21083P   24286.82499358  .00000224  00000+0  57762-3 0  9993
2 49199  87.8873  82.0847 0001801  95.4347 264.6988 13.13470014150526
ONEWEB-0334             
1 49200U 21083Q   24286.76805608 -.00000166  00000+0 -44022-3 0  9990
2 49200  87.9275  36.2900 0002634 113.2659 246.8751 13.20775225155959
ONEWEB-0335             
1 49201U 21083R   24286.82021697 -.00000584  00000+0 -16343-2 0  9994
2 49201  87.8866  82.0745 0001794  87.1893 272.9441 13.13474475150536
ONEWEB-0336             
1 49202U 21083S   24286.71388683 -.00000123  00000+0 -37275-3 0  9991
2 49202  87.8860  82.0905 0001636 100.2073 259.9240 13.13474262150515
ONEWEB-0337             
1 49203U 21083T   24286.87564072  .00000294  00000+0  76975-3 0  9994
2 49203  87.8867  82.0568 0001642  91.3495 268.7822 13.13471664150532
ONEWEB-0338             
1 49204U 21083U   24286.77514763  .00000008  00000+0 -11312-4 0  9995
2 49204  87.9281  36.2790 0002189 100.8825 259.2555 13.20768997155979
ONEWEB-0339             
1 49205U 21083V   24286.81070309  .00000384  00000+0  10152-2 0  9999
2 49205  87.8869  82.0631 0001745  90.0648 270.0681 13.13470943150502
ONEWEB-0340             
1 49206U 21083W   24286.73498945  .00000046  00000+0  85082-4 0  9992
2 49206  87.9053  97.3432 0001568  87.7432 272.3880 13.18686792149256
ONEWEB-0341             
1 49207U 21083X   24286.89465783  .00000053  00000+0  10056-3 0  9990
2 49207  87.9052  97.3241 0001946  68.9825 291.1515 13.18684539149296
ONEWEB-0342             
1 49208U 21083Y   24286.78145710  .00000207  00000+0  47821-3 0  9995
2 49208  87.9274  36.2781 0001936 100.5015 259.6337 13.20775741155946
ONEWEB-0343             
1 49209U 21083Z   24286.73814558  .00000097  00000+0  21218-3 0  9993
2 49209  87.9046  97.3556 0002173  75.6384 284.4989 13.18689237149322
ONEWEB-0344             
1 49210U 21083AA  24286.70119267 -.00000451  00000+0 -12708-2 0  9996
2 49210  87.8869  82.1048 0001565  76.0664 284.0639 13.13470435150495
ONEWEB-0345             
1 49211U 21083AB  24286.87099265 -.00000272  00000+0 -78041-3 0  9994
2 49211  87.8862  82.0427 0001553  76.2498 283.8804 13.13468078150528
ONEWEB-0346             
1 49212U 21083AC  24286.74762842  .00000054  00000+0  10385-3 0  9992
2 49212  87.9051  97.3627 0001286  90.7084 269.4195 13.18687609149266
ONEWEB-0348             
1 49213U 21083AD  24286.77199121  .00000149  00000+0  33477-3 0  9992
2 49213  87.9278  36.2632 0001152  88.3252 271.8014 13.20769800155977
ONEWEB-0350             
1 49214U 21083AE  24286.88053888  .00000394  00000+0  10443-2 0  9993
2 49214  87.8867  82.0325 0001619  82.3021 277.8292 13.13471591150557
ONEWEB-0351             
1 49215U 21083AF  24286.84131015  .00000007  00000+0 -15360-4 0  9996
2 49215  87.9276  36.2438 0002688  94.7406 265.4034 13.20772328155945
ONEWEB-0352             
1 49216U 21083AG  24286.86148967 -.00000162  00000+0 -47855-3 0  9999
2 49216  87.8868  82.0706 0002101  87.5855 272.5515 13.13471444150649
ONEWEB-0354             
1 49217U 21083AH  24286.79093960  .00000214  00000+0  49326-3 0  9995
2 49217  87.9281  36.2428 0001668  90.4461 269.6863 13.20774071155979
ONEWEB-0355             
1 49218U 21083AJ  24286.81547349  .00000328  00000+0  86380-3 0  9991
2 49218  87.8871  82.0786 0001820  88.2873 271.8465 13.13470226150517
ONEWEB-0357             
1 49219U 21083AK  24286.78778116  .00000193  00000+0  44174-3 0  9991
2 49219  87.9276  36.2576 0001942  95.0840 265.0515 13.20771837155977
ONEWEB-0332             
1 49279U 21090A   24286.77493798 -.00000041  00000+0 -14423-3 0  9992
2 49279  87.8996  51.4998 0002009 106.3004 253.8346 13.14503474147129
ONEWEB-0347             
1 49280U 21090B   24286.77830634  .00000176  00000+0  40174-3 0  9997
2 49280  87.9282  36.2618 0002175 112.6999 247.4365 13.20774940150205
ONEWEB-0349             
1 49281U 21090C   24286.80987321 -.00000131  00000+0 -35405-3 0  9992
2 49281  87.9287  36.2570 0002111 102.9638 257.1731 13.20772408148995
ONEWEB-0353             
1 49282U 21090D   24286.84312454 -.00000087  00000+0 -27046-3 0  9998
2 49282  87.8995  51.4713 0001900 104.7267 255.4074 13.14506402147130
ONEWEB-0356             
1 49283U 21090E   24286.80829336  .00000162  00000+0  36635-3 0  9993
2 49283  87.9281  36.2510 0001244 129.7807 230.3436 13.20775193148995
ONEWEB-0358             
1 49284U 21090F   24286.83827847 -.00000138  00000+0 -37229-3 0  9997
2 49284  87.9281  36.2326 0001448 100.9169 259.2128 13.20770950149725
ONEWEB-0359             
1 49285U 21090G   24286.83510300 -.00005744  00000+0 -14161-1 0  9997
2 49285  87.9280  36.2494 0001605  88.3362 271.7955 13.20801799149701
ONEWEB-0360             
1 49286U 21090H   24286.82563945 -.00000420  00000+0 -10653-2 0  9999
2 49286  87.9285  36.2563 0001710  96.2593 263.8735 13.20773425149011
ONEWEB-0361             
1 49287U 21090J   24286.80671455  .00000747  00000+0  18060-2 0  9994
2 49287  87.9279  36.2550 0001722 109.3598 250.7722 13.20773166149467
ONEWEB-0362             
1 49288U 21090K   24286.80501154  .00000059  00000+0  11401-3 0  9992
2 49288  87.9139  66.7723 0001943  89.7405 270.3950 13.19724822146142
ONEWEB-0363             
1 49289U 21090L   24286.82249535 -.00000613  00000+0 -15399-2 0  9994
2 49289  87.9283  36.2475 0001653 106.9404 253.1911 13.20767945149478
ONEWEB-0364             
1 49290U 21090M   24286.78461574  .00000187  00000+0  42818-3 0  9991
2 49290  87.9284  36.2811 0001757 104.4288 255.7040 13.20772794150609
ONEWEB-0365             
1 49291U 21090N   24286.81447716  .00000046  00000+0  82339-4 0  9995
2 49291  87.9135  66.7433 0001872  96.2951 263.8395 13.19725558145652
ONEWEB-0366             
1 49292U 21090P   24286.83997691 -.00000103  00000+0 -31120-3 0  9997
2 49292  87.8997  51.4817 0001655 100.8477 259.2839 13.14498389147118
ONEWEB-0367             
1 49293U 21090Q   24286.82091524  .00000136  00000+0  30189-3 0  9995
2 49293  87.9281  36.2422 0001944 102.7042 257.4309 13.20775436148996
ONEWEB-0368             
1 49294U 21090R   24286.79408679  .00000143  00000+0  31889-3 0  9991
2 49294  87.9282  36.2788 0002139 126.0102 234.1230 13.20771180150143
ONEWEB-0369             
1 49295U 21090S   24286.80974370  .00000078  00000+0  16324-3 0  9994
2 49295  87.9140  66.7553 0001819  96.1309 264.0031 13.19726574145640
ONEWEB-0370             
1 49296U 21090T   24286.83038417  .00000489  00000+0  11718-2 0  9998
2 49296  87.9282  36.2443 0001836  91.2915 268.8429 13.20770706149034
ONEWEB-0371             
1 49297U 21090U   24286.81763562  .00000082  00000+0  17234-3 0  9992
2 49297  87.9136  66.7432 0001824  94.5431 265.5910 13.19725315145685
ONEWEB-0372             
1 49298U 21090V   24286.81921205  .00000042  00000+0  70421-4 0  9997
2 49298  87.9280  36.2558 0001891 102.8235 257.3109 13.20771025149006
ONEWEB-0373             
1 49299U 21090W   24286.77041949  .00000179  00000+0  40756-3 0  9999
2 49299  87.9283  36.2798 0001548 108.3648 251.7653 13.20771416150181
ONEWEB-0374             
1 49300U 21090X   24286.82728903  .00000063  00000+0  13568-3 0  9993
2 49300  87.8998  51.4683 0001740 103.2577 256.8746 13.14501326147119
ONEWEB-0375             
1 49301U 21090Y   24286.83353808 -.00000015  00000+0 -68531-4 0  9993
2 49301  87.9283  36.2438 0001154 114.9264 245.1990 13.20774782149690
ONEWEB-0376             
1 49302U 21090Z   24286.81605030  .00000133  00000+0  29942-3 0  9990
2 49302  87.9135  66.7448 0001992  99.4807 260.6551 13.19727473145689
ONEWEB-0377             
1 49303U 21090AA  24286.81947850 -.00000007  00000+0 -49521-4 0  9998
2 49303  87.9279  36.2387 0001528  91.0782 269.0526 13.20771507149686
ONEWEB-0378             
1 49304U 21090AB  24286.84157986 -.00000018  00000+0 -76062-4 0  9997
2 49304  87.9282  36.2389 0001673 103.0383 257.0937 13.20771120148958
ONEWEB-0379             
1 49305U 21090AC  24286.82250887  .00000046  00000+0  90638-4 0  9994
2 49305  87.8998  51.4725 0001745 102.8152 257.3172 13.14505775147111
ONEWEB-0380             
1 49306U 21090AD  24286.81288630  .00000077  00000+0  16010-3 0  9996
2 49306  87.9140  66.7572 0001688  95.3809 264.7516 13.19727685145654
ONEWEB-0381             
1 49307U 21090AE  24286.81618644  .00000171  00000+0  38861-3 0  9992
2 49307  87.9281  36.2470 0001654  96.5304 263.6018 13.20774918148994
ONEWEB-0382             
1 49308U 21090AF  24286.80354543  .00000231  00000+0  53663-3 0  9991
2 49308  87.9277  36.2457 0001508 112.4353 247.6940 13.20770829148987
ONEWEB-0383             
1 49309U 21090AG  24286.81617170  .00000051  00000+0  10316-3 0  9999
2 49309  87.8997  51.4597 0001690 108.0393 252.0921 13.14502802147140
ONEWEB-0384             
1 49310U 21090AH  24286.80039644  .00000163  00000+0  36980-3 0  9993
2 49310  87.9286  36.2597 0001440 118.1844 241.9434 13.20771032148991
ONEWEB-0385             
1 49311U 21090AJ  24286.79567175  .00000217  00000+0  50163-3 0  9996
2 49311  87.9283  36.2613 0001465 108.3013 251.8280 13.20770699148968
ONEWEB-0386             
1 49312U 21090AK  24286.81303589  .00000171  00000+0  38814-3 0  9995
2 49312  87.9275  36.2450 0001545 107.0865 253.0438 13.20769758148984
ONEWEB-0387             
1 49313U 21090AL  24286.79724986  .00000219  00000+0  50611-3 0  9993
2 49313  87.9280  36.3179 0001369  96.2787 263.8502 13.20771618148985
ONEWEB-0388             
1 49314U 21090AM  24286.80816308  .00000061  00000+0  11890-3 0  9997
2 49314  87.9141  66.7621 0001680  99.7064 260.4259 13.19727992145649
